     2.100          NAVIGATION                              RINEX VERSION / TYPE
fic2rin                                 11/26/2011 00:03:37 PGM / RUN BY / DATE
                                                            END OF HEADER
15 11 11 25  4  0  0.0 -.984100624919D-04  .102318153949D-11  .000000000000D+00
     .240000000000D+02  .129437500000D+03  .509628370924D-08 -.268051887869D+01
     .676885247231D-05  .400105968583D-02  .216439366341D-05  .515372390366D+04
     .446400000000D+06 -.137835741043D-06 -.205593968449D+01 -.130385160446D-07
     .947673072559D+00  .333593750000D+03 -.562977500101D-01 -.854999899892D-08
     .372872674501D-09  .100000000000D+01  .166300000000D+04  .000000000000D+00
     .240000000000D+01  .000000000000D+00 -.102445483208D-07  .240000000000D+02
     .439206000000D+06  .400000000000D+01
16 11 11 25  4  0  0.0 -.210642814636D-03 -.193267624127D-11  .000000000000D+00
     .690000000000D+02 -.736250000000D+02  .374587031625D-08 -.107898064509D+01
    -.389106571674D-05  .617323734332D-02  .128559768200D-04  .515356728935D+04
     .446400000000D+06 -.409781932831D-07  .975928406307D-01 -.169500708580D-06
     .978818576523D+00  .142750000000D+03 -.779443879080D-01 -.749102631703D-08
     .319656172105D-09  .100000000000D+01  .166300000000D+04  .000000000000D+00
     .240000000000D+01  .000000000000D+00 -.977888703346D-08  .690000000000D+02
     .439206000000D+06  .400000000000D+01
17 11 11 25  4  0  0.0  .163974240422D-03 -.193267624127D-11  .000000000000D+00
     .140000000000D+02  .207187500000D+02  .476805575152D-08 -.197874351628D+01
     .114738941193D-05  .680080475286D-02  .649876892567D-05  .515359047699D+04
     .446400000000D+06  .409781932831D-07  .113889109909D+01 -.139698386192D-06
     .961639463686D+00  .256531250000D+03 -.239877965073D+01 -.789604318761D-08
     .564309220030D-09  .100000000000D+01  .166300000000D+04  .000000000000D+00
     .240000000000D+01  .000000000000D+00 -.107102096081D-07  .140000000000D+02
     .439206000000D+06  .400000000000D+01
18 11 11 25  4  0  0.0  .168743077666D-03  .181898940355D-11  .000000000000D+00
     .153000000000D+03  .989687500000D+02  .491127600293D-08 -.546091879353D+00
     .536814332008D-05  .127309481613D-01  .119563192129D-04  .515365879631D+04
     .446400000000D+06  .558793544769D-08 -.306998533129D+01  .234693288803D-06
     .931783994532D+00  .137812500000D+03 -.220324775528D+01 -.829141679936D-08
    -.133576992589D-09  .100000000000D+01  .166300000000D+04  .000000000000D+00
     .340000000000D+01  .000000000000D+00 -.111758708954D-07  .153000000000D+03
     .439206000000D+06  .400000000000D+01
19 11 11 25  4  0  0.0 -.208426732570D-03 -.397903932026D-11  .000000000000D+00
     .107000000000D+03  .264062500000D+02  .491949063082D-08 -.277352431397D+01
     .137090682983D-05  .769138638861D-02  .593811273575D-05  .515370873642D+04
     .446400000000D+06 -.949949026108D-07  .119243797941D+01 -.242143869400D-07
     .959038995138D+00  .266000000000D+03  .133682930168D+00 -.808497962900D-08
     .463590738987D-09  .100000000000D+01  .166300000000D+04  .000000000000D+00
     .240000000000D+01  .000000000000D+00 -.144354999065D-07  .107000000000D+03
     .439206000000D+06  .400000000000D+01
20 11 11 25  4  0  0.0  .567464157939D-04  .682121026330D-12  .000000000000D+00
     .700000000000D+02  .105312500000D+03  .482841540860D-08 -.671791468068D-01
     .530667603016D-05  .479090888985D-02  .121314078569D-04  .515355877113D+04
     .446400000000D+06 -.391155481339D-07 -.312379390132D+01  .484287738800D-07
     .932090253506D+00  .135250000000D+03  .125515237777D+01 -.810855203945D-08
    -.216080429189D-09  .100000000000D+01  .166300000000D+04  .000000000000D+00
     .240000000000D+01  .000000000000D+00 -.791624188423D-08  .700000000000D+02
     .439206000000D+06  .400000000000D+01
21 11 11 25  4  0  0.0 -.186702236533D-03 -.250111042988D-11  .000000000000D+00
     .880000000000D+02 -.335937500000D+02  .550665794584D-08  .532803265486D+00
    -.156834721565D-05  .182447534753D-01  .709854066372D-05  .515367749786D+04
     .446400000000D+06 -.270083546638D-06  .216100450064D+01  .257045030594D-06
     .931221357702D+00  .230156250000D+03 -.231596358177D+01 -.866036073879D-08
    -.695386108480D-09  .100000000000D+01  .166300000000D+04  .000000000000D+00
     .240000000000D+01  .000000000000D+00 -.111758708954D-07  .880000000000D+02
     .439206000000D+06  .400000000000D+01
22 11 11 25  4  0  0.0  .143290963024D-03 -.113686837722D-12  .000000000000D+00
     .640000000000D+02  .100968750000D+03  .478377069182D-08 -.141060458226D+01
     .537931919098D-05  .579337787349D-02  .113584101200D-04  .515371255302D+04
     .446400000000D+06  .117346644402D-06 -.306622331603D+01  .134110450745D-06
     .929492946324D+00  .143750000000D+03 -.197197642151D+01 -.806747890002D-08
    -.140005831805D-09  .100000000000D+01  .166300000000D+04  .000000000000D+00
     .340000000000D+01  .000000000000D+00 -.167638063431D-07  .640000000000D+02
     .439206000000D+06  .400000000000D+01
23 11 11 25  4  0  0.0  .256442930549D-03 -.329691829393D-11  .000000000000D+00
     .550000000000D+02  .117968750000D+03  .476019828137D-08  .303200513843D+01
     .618398189545D-05  .751923408825D-02  .784173607826D-06  .515370828056D+04
     .446400000000D+06 -.763684511185D-07 -.202291955195D+01 -.106170773506D-06
     .962265822303D+00  .369843750000D+03 -.303121522265D+01 -.841785063727D-08
     .391087718945D-09  .100000000000D+01  .166300000000D+04  .000000000000D+00
     .240000000000D+01  .000000000000D+00 -.204890966415D-07  .550000000000D+02
     .439206000000D+06  .400000000000D+01
25 11 11 25  4  0  0.0  .286223366857D-04  .102318153949D-11  .000000000000D+00
     .650000000000D+02 -.922187500000D+02  .405588322953D-08 -.851350237926D-01
    -.483915209770D-05  .984149519354D-03  .120643526316D-04  .515357016373D+04
     .446400000000D+06  .130385160446D-07  .476525624748D-01  .223517417908D-07
     .966725997664D+00  .148312500000D+03  .829899996780D+00 -.768817738630D-08
     .177864551630D-09  .100000000000D+01  .166300000000D+04  .000000000000D+00
     .240000000000D+01  .000000000000D+00  .512227416039D-08  .650000000000D+02
     .439206000000D+06  .400000000000D+01
26 11 11 25  4  0  0.0 -.238245353103D-03 -.136424205266D-10  .000000000000D+00
     .630000000000D+02  .123093750000D+03  .416945938901D-08  .288551083923D+01
     .598281621933D-05  .204777945764D-01  .851228833199D-06  .515365691376D+04
     .446400000000D+06  .614672899246D-07 -.195408566340D+01 -.318512320518D-06
     .985249065544D+00  .373343750000D+03  .116560946038D+01 -.796533178804D-08
     .309298597814D-09  .100000000000D+01  .166300000000D+04  .000000000000D+00
     .240000000000D+01  .000000000000D+00 -.605359673500D-08  .630000000000D+02
     .439206000000D+06  .400000000000D+01
27 11 11 25  4  0  0.0  .329184345901D-03  .397903932026D-11  .000000000000D+00
     .560000000000D+02 -.125093750000D+03  .416303054979D-08 -.244176300294D+01
    -.600703060627D-05  .218336167745D-01  .111386179924D-05  .515359352875D+04
     .446400000000D+06  .171363353729D-06 -.102914639046D+01  .309199094772D-06
     .981566924145D+00  .363500000000D+03 -.117578557413D+01 -.786854204207D-08
    -.268939773850D-09  .100000000000D+01  .166300000000D+04  .000000000000D+00
     .340000000000D+01  .630000000000D+02 -.419095158577D-08  .560000000000D+02
     .439206000000D+06  .400000000000D+01
28 11 11 25  4  0  0.0  .872616656125D-04  .341060513165D-11  .000000000000D+00
     .250000000000D+02 -.866562500000D+02  .381408744348D-08 -.137018611165D+01
    -.443123281002D-05  .175284283468D-01  .131633132696D-04  .515371013451D+04
     .446400000000D+06  .221654772758D-06  .104566405805D+00  .458210706711D-06
     .977141950982D+00  .132250000000D+03 -.187190227871D+01 -.751031283468D-08
     .228223792151D-09  .100000000000D+01  .166300000000D+04  .000000000000D+00
     .240000000000D+01  .000000000000D+00 -.107102096081D-07  .250000000000D+02
     .439206000000D+06  .400000000000D+01
29 11 11 25  4  0  0.0  .260422937572D-03  .329691829393D-11  .000000000000D+00
     .490000000000D+02  .259687500000D+02  .484127308703D-08  .759856080404D+00
     .126473605633D-05  .209150428418D-02  .653415918350D-05  .515367485809D+04
     .446400000000D+06 -.484287738800D-07  .114736686462D+01 -.540167093277D-07
     .962119747006D+00  .256187500000D+03 -.118338399258D+01 -.813462455405D-08
     .484663045304D-09  .100000000000D+01  .166300000000D+04  .000000000000D+00
     .240000000000D+01  .000000000000D+00 -.931322574615D-08  .490000000000D+02
     .439206000000D+06  .400000000000D+01
31 11 11 25  4  0  0.0  .173964537680D-03  .511590769747D-11  .000000000000D+00
     .810000000000D+02 -.131281250000D+03  .419267464173D-08  .141762265525D+01
    -.698864459991D-05  .788249424659D-02  .259652733803D-05  .515353531837D+04
     .446400000000D+06  .113621354103D-06 -.973552522016D+00 -.763684511185D-07
     .980369420367D+00  .336031250000D+03 -.955742432131D+00 -.811676666734D-08
    -.431803700643D-09  .100000000000D+01  .166300000000D+04  .000000000000D+00
     .340000000000D+01  .000000000000D+00 -.130385160446D-07  .810000000000D+02
     .439206000000D+06  .400000000000D+01
32 11 11 25  4  0  0.0 -.367109663785D-03 -.591171556152D-11  .000000000000D+00
     .410000000000D+02  .133031250000D+03  .424981987920D-08  .217320693001D+01
     .674650073051D-05  .121016420890D-01  .113565474749D-04  .515380460358D+04
     .446400000000D+06  .130385160446D-06 -.299532338777D+01  .134110450745D-06
     .953726272082D+00  .154687500000D+03 -.669928216605D+00 -.768496296670D-08
    -.200008331150D-09  .100000000000D+01  .166300000000D+04  .000000000000D+00
     .240000000000D+01  .000000000000D+00 -.279396772385D-08  .410000000000D+02
     .439206000000D+06  .400000000000D+01
